IRIDIUM 155             
1 43573U 18061E   19236.46804402  .00000064  00000-0  15798-4 0  9991
2 43573  86.3990  16.7541 0001993 111.4731 248.6677 14.34216751 56659
IRIDIUM 154             
1 43574U 18061F   19236.44900626  .00000063  00000-0  15530-4 0  9998
2 43574  86.3994  16.7777 0002162  83.6075 276.5367 14.34218489 56695
IRIDIUM 163             
1 43575U 18061G   19236.42997523  .00000070  00000-0  17802-4 0  9991
2 43575  86.3992  16.7765 0002947  91.0344 269.1189 14.34219609 56666
IRIDIUM 156             
1 43576U 18061H   19236.47438529  .00000064  00000-0  15922-4 0  9997
2 43576  86.3991  16.7623 0002495  99.9361 260.2116 14.34216638 56653
IRIDIUM 164             
1 43577U 18061J   19236.45535333  .00000063  00000-0  15345-4 0  9995
2 43577  86.3994  16.7730 0002304  86.5518 273.5941 14.34217419 56708
IRIDIUM 159             
1 43578U 18061K   19236.42363231  .00000069  00000-0  17632-4 0  9996
2 43578  86.3991  16.7752 0002187  87.4367 272.7079 14.34218429 56661
IRIDIUM 180             
1 43922U 19002A   19236.28360573  .00000050  00000-0  10797-4 0  9990
2 43922  86.3985 313.6778 0002939  68.4244 291.7264 14.34216579 32296
IRIDIUM 176             
1 43923U 19002B   19236.52133320  .00000088  00000-0  10049-4 0  9997
2 43923  86.6120 313.5967 0002743  93.6030 266.5501 14.72250563 33092
IRIDIUM 168             
1 43924U 19002C   19236.55633692  .00000046  00000-0  94111-5 0  9995
2 43924  86.3988 313.5706 0002265  84.2090 275.9364 14.34217137 32272
IRIDIUM 173             
1 43925U 19002D   19236.26457945  .00000047  00000-0  97141-5 0  9996
2 43925  86.3984 313.6824 0002297  88.2038 271.9421 14.34217948 32227
IRIDIUM 169             
1 43926U 19002E   19236.33812598  .00000071  00000-0  17204-4 0  9992
2 43926  87.4076 336.5592 0001291 185.1304 174.9882 14.38626152 32402
IRIDIUM 172             
1 43927U 19002F   19236.25822556  .00000047  00000-0  97161-5 0  9993
2 43927  86.3984 313.6853 0002367  84.6597 275.4869 14.34216706 32225
IRIDIUM 175             
1 43928U 19002G   19236.44715004  .00000086  00000-0  96775-5 0  9997
2 43928  86.6104 313.5781 0001964 118.0579 242.0837 14.72254326 33077
IRIDIUM 171             
1 43929U 19002H   19236.37873785  .00000047  00000-0  95877-5 0  9990
2 43929  86.3994 313.6646 0002216  85.0426 275.1023 14.34218928 32235
IRIDIUM 170             
1 43930U 19002J   19236.25563286  .00000095  00000-0  11091-4 0  9999
2 43930  86.6120 313.7151 0002652 100.9753 259.1762 14.72250545 33064
IRIDIUM 167             
1 43931U 19002K   19236.51193473  .00000046  00000-0  92904-5 0  9995
2 43931  86.3986 313.5797 0002730  67.9675 292.1811 14.34218543 32250
